[{"OBJECT_NAME":"STARLINK-3369","OBJECT_ID":"2022-005AQ","EPOCH":"2026-03-09T22:22:22.044576","MEAN_MOTION":15.18998951,"ECCENTRICITY":0.00032386,"INCLINATION":53.2137,"RA_OF_ASC_NODE":280.745,"ARG_OF_PERICENTER":175.5204,"MEAN_ANOMALY":184.5822,"EPHEMERIS_TYPE":0,"CLASSIFICATION_TYPE":"U","NORAD_CAT_ID":51142,"ELEMENT_SET_NO":999,"REV_AT_EPOCH":22901,"BSTAR":0.0020382455,"MEAN_MOTION_DOT":0.00043116,"MEAN_MOTION_DDOT":0},{"OBJECT_NAME":"KONDOR-FKA NO. 1","OBJECT_ID":"2023-074A","EPOCH":"2026-03-07T10:13:03.575712","MEAN_MOTION":15.19772289,"ECCENTRICITY":0.00017305,"INCLINATION":97.4394,"RA_OF_ASC_NODE":262.4533,"ARG_OF_PERICENTER":84.6258,"MEAN_ANOMALY":275.5174,"EPHEMERIS_TYPE":0,"CLASSIFICATION_TYPE":"U","NORAD_CAT_ID":56756,"ELEMENT_SET_NO":999,"REV_AT_EPOCH":15423,"BSTAR":0.0003518818,"MEAN_MOTION_DOT":7.463e-5,"MEAN_MOTION_DDOT":0}]
